DELTA 2 R/B             
1 25876U 99041E   20011.23963572 -.00000151  00000-0  13459-4 0  9996
2 25876  51.7658 214.8911 0530498 242.7099 111.8863 14.04381736 46410
HELIOS 1B               
1 25977U 99064A   20010.80822467  .00000015  00000-0  89349-5 0  9992
2 25977  98.2575 160.3803 0002365 114.4220 245.7239 14.82454588 82910
TERRA                   
1 25994U 99068A   20011.77964903 -.00005496  00000-0 -12117-2 0  9990
2 25994  98.2090  88.2501 0001457 111.4047 248.6570 14.57080688 67358
SL-16 R/B               
1 26070U 00006B   20010.86754745 -.00000304  00000-0 -13114-3 0  9992
2 26070  71.0019 146.5017 0016563 357.2631   2.8398 14.15460070 30198
TITAN 4B R/B            
1 26474U 00047B   20010.65593893  .00000030  00000-0  13597-4 0  9997
2 26474  67.9932 152.7801 0055173   7.0696 353.1211 14.95901270 55570
ENVISAT                 
1 27386U 02009A   20011.49267240  .00000010  00000-0  16659-4 0  9997
2 27386  98.1399  26.8237 0001221  87.0869  86.2511 14.37968362935918
IDEFIX & ARIANE 42P R/B 
1 27422U 02021B   20011.17358358 -.00000030  00000-0  44556-5 0  9999
2 27422  98.3295 338.9893 0011973 344.4539  15.6274 14.29280542920666
AQUA                    
1 27424U 02022A   20011.55534991  .00000097  00000-0  31532-4 0  9994
2 27424  98.2186 314.4001 0002701 101.4512  60.0186 14.57103900940927
CZ-4B R/B               
1 27432U 02024C   20010.91050007 -.00000035  00000-0  60620-5 0  9999
2 27432  99.0827  10.4531 0049505 263.5281 131.7647 14.14088146911242
MIDORI II (ADEOS-II)    
1 27597U 02056A   20011.47144197  .00000019  00000-0  25256-4 0  9998
2 27597  98.5010 323.2011 0002107  88.4892 271.6531 14.27427497889272
H-2A R/B                
1 27601U 02056E   20011.48147262  .00000048  00000-0  32243-4 0  9997
2 27601  98.2487  55.2006 0072636  28.9583 104.1511 14.31927241892087
CZ-4B R/B               
1 28059U 03049C   20011.16847204 -.00000006  00000-0  10426-4 0  9990
2 28059  98.4896 285.8830 0048898 262.4130  97.1509 14.52585081859832
CZ-2C R/B               
1 28222U 04012C   20010.91004837  .00000493  00000-0  33541-4 0  9994
2 28222  97.6555 333.2628 0046395 211.1994 223.5118 15.10259498862064
SL-16 R/B               
1 28353U 04021B   20010.62812830  .00000095  00000-0  74461-4 0  9991
2 28353  70.9999 272.4275 0006709 229.5400 130.5138 14.14221848804681
CZ-4B R/B               
1 28415U 04035C   20011.38863399  .00000545  00000-0  39843-4 0  9990
2 28415  97.6364  54.4990 0052012 169.5031 190.7295 15.06789452839834
CZ-2C R/B               
1 28480U 04046B   20011.15276458  .00000026  00000-0  25648-4 0  9995
2 28480  98.1023  58.1794 0141331 334.1567  56.1180 14.25714958787888
ARIANE 5 R/B            
1 28499U 04049H   20010.64565015  .00000035  00000-0  11598-4 0  9990
2 28499  98.0529 111.9864 0093401  66.9680  75.0962 14.80002388812643
CZ-2D R/B               
1 28738U 05024B   20010.81369921  .00000349  00000-0  23990-4 0  9994
2 28738  97.3968  38.5222 0012410  19.6329 340.5377 15.11941224797431
SUZAKU (ASTRO-EII)      
1 28773U 05025A   20011.28532583  .00001002  00000-0  44661-4 0  9997
2 28773  31.3833 324.9699 0004350  56.2717 303.8345 15.17346655799893
ALOS (DAICHI)           
1 28931U 06002A   20011.39309238  .00000139  00000-0  35830-4 0  9998
2 28931  97.8320   4.9976 0000466  82.7593 277.3663 14.62673424744591
H-2A R/B                
1 28932U 06002B   20010.53860674  .00000175  00000-0  22329-4 0  9999
2 28932  98.3068 351.7682 0089915 120.9984  18.9734 14.92117824757557
AKARI (ASTRO-F)         
1 28939U 06005A   20010.86180005  .00001803  00000-0  51058-4 0  9998
2 28939  98.2129 327.0524 0095812 157.9920 202.5478 15.33473910756580
RESURS-DK 1             
1 29228U 06021A   20011.43583388  .00000049  00000-0  11070-4 0  9994
2 29228  69.9341 230.2582 0006316 314.7206  45.3440 15.02500061749019
GENESIS 1               
1 29252U 06029A   20010.97640200  .00000482  00000-0  33567-4 0  9990
2 29252  64.5228  99.8484 0026708 198.8707 161.1429 15.17990349744124
CZ-4B R/B               
1 29507U 06046C   20011.31713595  .00000142  00000-0  15998-4 0  9990
2 29507  97.7464  33.6829 0048399 340.4296  19.5068 15.00466837721700
CZ-2C R/B               
1 31114U 07010B   20010.89868468  .00000022  00000-0  28930-4 0  9998
2 31114  98.2800 234.2264 0059966  10.2981 349.9410 14.19305534660511
COSMO-SKYMED 1          
1 31598U 07023A   20011.43572094  .00000051  00000-0  12947-4 0  9999
2 31598  97.8824 196.8823 0001429  93.8653 266.2725 14.82156531681420
GENESIS 2               
1 31789U 07028A   20011.49918026  .00000364  00000-0  28234-4 0  9994
2 31789  64.5045 139.4236 0052128 260.9210  98.6012 15.17128652691202
COSMOS 2428             
1 31792U 07029A   20011.41643867 -.00000192  00000-0 -78103-4 0  9990
2 31792  70.9263 244.7487 0010413 306.0713  53.9442 14.12400628646557
SL-16 R/B               
1 31793U 07029B   20011.30633811 -.00000206  00000-0 -82832-4 0  9997
2 31793  70.9731 218.5688 0002209 256.6419 276.1413 14.14420190647362
KORONAS-FOTON           
1 33504U 09003A   20010.71716351  .00000398  00000-0  19170-4 0  9993
2 33504  82.4410  20.7589 0020733 106.9241 253.4267 15.15540223603449
H-2A R/B                
1 38341U 12025E   20010.86294166  .00000104  00000-0  19697-4 0  9995
2 38341  98.4764 155.8441 0055948  22.8574 337.5110 14.83971570413841
CUSAT 2 & FALCON 9 R/B  
1 39271U 13055G   20011.42298577  .00004490  00000-0  11048-3 0  9998
2 39271  80.9680  76.7908 0593276 284.9396  68.6862 14.46603172327872
SL-4 R/B                
1 39679U 14021B   20011.41594222  .00000187  00000-0  27477-4 0  9992
2 39679  51.6155 120.7446 0172928 118.1515 243.7047 15.06274982315521
ALOS-2                  
1 39766U 14029A   20011.52082231 -.00000061  00000-0 -12695-5 0  9991
2 39766  97.9222 110.3951 0001465  91.5316 268.6085 14.79469986304347
SL-27 R/B               
1 40354U 14084B   20011.47569116  .00000814  00000-0  21229-4 0  9999
2 40354  74.7381 354.8610 0039473 264.0172  95.6541 15.39979920284214
YAOGAN 29               
1 41038U 15069A   20011.34926064  .00000047  00000-0  13030-4 0  9997
2 41038  97.9966 359.7156 0002210  67.7219 292.4229 14.80432230222886
ASTRO-H (HITOMI)        
1 41337U 16012A   20010.81404494  .00000242  00000-0  12684-4 0  9998
2 41337  31.0061 295.5742 0012481 302.9130  57.0305 14.98641228213684
SHENZHOU-11 MODULE      
1 41868U 16061G   20010.83074502  .00022314  00000-0  84597-4 0  9992
2 41868  42.7920  48.4656 0009002  82.1338  86.5355 15.87118930180781
HXMT (HUIYAN)           
1 42758U 17034A   20011.56237118  .00000026  00000-0  15372-4 0  9998
2 42758  43.0176 182.1072 0009572 114.1910 296.8521 15.08732618142023
CZ-2C R/B               
1 43521U 18054D   20010.89294248  .00000389  00000-0  23357-4 0  9996
2 43521  35.1543  77.0347 0082810 159.6312 200.7733 15.10848047 85151
AEOLUS                  
1 43600U 18066A   20011.59610641  .00027366  00000-0  10840-3 0  9990
2 43600  96.7136  20.3492 0005049  93.6199  27.1174 15.86707687 80333
SAOCOM 1A               
1 43641U 18076A   20011.44386353  .00000001  00000-0  66587-5 0  9998
2 43641  97.8843 199.8168 0001340  85.1332 275.0038 14.82154826 68191
CREW DRAGON DEMO-1 DEB  
1 44064U 19011B   20010.79043265  .00009507  00000-0  11530-3 0  9993
2 44064  51.6407  34.1981 0003889 159.1820 200.9331 15.61378568 48092
